{
  "norad_id": 53007,
  "name": "STARLINK-4215",
  "history": [
    {
      "epoch": "2026-04-09T23:37:09.921504Z",
      "apogee_km": 540.62886046333,
      "perigee_km": 538.8468159050144,
      "latitude_deg": 2.8016139096484965e-05,
      "longitude_deg": 121.12088114345329,
      "height_km": 540.4538357980439,
      "semi_major_axis_km": 6917.874838184172,
      "eccentricity": 0.0001288,
      "inclination_deg": 53.2185,
      "raan_deg": 313.6367,
      "arg_perigee_deg": 78.3477,
      "mean_anomaly_deg": 281.766,
      "mean_motion_rev_day": 15.08841816
    },
    {
      "epoch": "2026-04-11T20:07:57.789120Z",
      "apogee_km": 540.7019863453361,
      "perigee_km": 538.7995672067227,
      "latitude_deg": -5.3180992613455714e-05,
      "longitude_deg": 163.26577250668888,
      "height_km": 540.6738478691335,
      "semi_major_axis_km": 6917.88777677603,
      "eccentricity": 0.0001375,
      "inclination_deg": 53.2192,
      "raan_deg": 305.3092,
      "arg_perigee_deg": 91.6378,
      "mean_anomaly_deg": 268.4771,
      "mean_motion_rev_day": 15.08837583
    },
    {
      "epoch": "2026-04-13T05:31:03.719424Z",
      "apogee_km": 540.696238139808,
      "perigee_km": 538.8000458223905,
      "latitude_deg": 6.48410922866703e-05,
      "longitude_deg": 14.8756775924725,
      "height_km": 540.6469551773207,
      "semi_major_axis_km": 6917.885141981099,
      "eccentricity": 0.00013705,
      "inclination_deg": 53.2187,
      "raan_deg": 299.0648,
      "arg_perigee_deg": 90.1809,
      "mean_anomaly_deg": 269.9341,
      "mean_motion_rev_day": 15.08838445
    },
    {
      "epoch": "2026-04-14T19:40:19.367040Z",
      "apogee_km": 540.2921675623093,
      "perigee_km": 539.2337288702311,
      "latitude_deg": -1.1625572131174503e-05,
      "longitude_deg": 153.8519806961254,
      "height_km": 540.1725857358277,
      "semi_major_axis_km": 6917.89994821627,
      "eccentricity": 7.65e-05,
      "inclination_deg": 53.2171,
      "raan_deg": 291.9233,
      "arg_perigee_deg": 22.9196,
      "mean_anomaly_deg": 337.183,
      "mean_motion_rev_day": 15.08833601
    },
    {
      "epoch": "2026-04-15T19:31:06.400128Z",
      "apogee_km": 540.6476342788064,
      "perigee_km": 538.8503674957765,
      "latitude_deg": 7.413043920642751e-06,
      "longitude_deg": 150.72118878213627,
      "height_km": 540.6761351174177,
      "semi_major_axis_km": 6917.886000887292,
      "eccentricity": 0.0001299,
      "inclination_deg": 53.2178,
      "raan_deg": 287.4678,
      "arg_perigee_deg": 91.9962,
      "mean_anomaly_deg": 268.1179,
      "mean_motion_rev_day": 15.08838164
    },
    {
      "epoch": "2026-04-16T05:03:25.185888Z",
      "apogee_km": 540.6381442138618,
      "perigee_km": 538.8519470696765,
      "latitude_deg": -1.9937610136499426e-06,
      "longitude_deg": 5.466774165769933,
      "height_km": 540.6644316317062,
      "semi_major_axis_km": 6917.882045641769,
      "eccentricity": 0.0001291,
      "inclination_deg": 53.2175,
      "raan_deg": 285.6834,
      "arg_perigee_deg": 91.5125,
      "mean_anomaly_deg": 268.6015,
      "mean_motion_rev_day": 15.08839458
    },
    {
      "epoch": "2026-04-17T17:37:17.600736Z",
      "apogee_km": 540.6528704873072,
      "perigee_km": 538.8712347652945,
      "latitude_deg": -3.293472615472729e-05,
      "longitude_deg": 168.6563051950434,
      "height_km": 540.7135249686642,
      "semi_major_axis_km": 6917.8990526263005,
      "eccentricity": 0.00012877,
      "inclination_deg": 53.217,
      "raan_deg": 278.843,
      "arg_perigee_deg": 93.5851,
      "mean_anomaly_deg": 266.5288,
      "mean_motion_rev_day": 15.08833894
    },
    {
      "epoch": "2026-04-18T20:38:50.454816Z",
      "apogee_km": 540.7083710690185,
      "perigee_km": 538.765832021305,
      "latitude_deg": -3.050611600598713e-05,
      "longitude_deg": 117.10420543053195,
      "height_km": 540.7728822315655,
      "semi_major_axis_km": 6917.8741015451615,
      "eccentricity": 0.0001404,
      "inclination_deg": 53.2178,
      "raan_deg": 273.7877,
      "arg_perigee_deg": 98.2917,
      "mean_anomaly_deg": 261.8234,
      "mean_motion_rev_day": 15.08842057
    },
    {
      "epoch": "2026-04-19T20:29:38.098752Z",
      "apogee_km": 540.7860244778249,
      "perigee_km": 538.7327928237364,
      "latitude_deg": -3.986380895125171e-05,
      "longitude_deg": 113.96583725933483,
      "height_km": 540.8384988030328,
      "semi_major_axis_km": 6917.89640865078,
      "eccentricity": 0.0001484,
      "inclination_deg": 53.2176,
      "raan_deg": 269.3272,
      "arg_perigee_deg": 100.2966,
      "mean_anomaly_deg": 259.8193,
      "mean_motion_rev_day": 15.08834759
    },
    {
      "epoch": "2026-04-20T10:48:06.314976Z",
      "apogee_km": 540.7152555627108,
      "perigee_km": 538.787655123514,
      "latitude_deg": -8.227725061741855e-06,
      "longitude_deg": -103.91491001832698,
      "height_km": 540.737323588806,
      "semi_major_axis_km": 6917.888455343113,
      "eccentricity": 0.00013932,
      "inclination_deg": 53.2174,
      "raan_deg": 266.6516,
      "arg_perigee_deg": 95.3701,
      "mean_anomaly_deg": 264.745,
      "mean_motion_rev_day": 15.08837361
    },
    {
      "epoch": "2026-04-21T20:11:12.025824Z",
      "apogee_km": 540.6096244090495,
      "perigee_km": 538.885687552779,
      "latitude_deg": 2.017840357045781e-05,
      "longitude_deg": 107.69514255077064,
      "height_km": 540.6020967661814,
      "semi_major_axis_km": 6917.884655980914,
      "eccentricity": 0.0001246,
      "inclination_deg": 53.2185,
      "raan_deg": 260.4065,
      "arg_perigee_deg": 87.2378,
      "mean_anomaly_deg": 272.8757,
      "mean_motion_rev_day": 15.08838604
    },
    {
      "epoch": "2026-04-22T16:51:13.245696Z",
      "apogee_km": 541.0527870526139,
      "perigee_km": 538.4544273405509,
      "latitude_deg": -1.842051122848588e-05,
      "longitude_deg": 152.9750651735994,
      "height_km": 540.4685655798364,
      "semi_major_axis_km": 6917.890607196582,
      "eccentricity": 0.0001878,
      "inclination_deg": 53.2193,
      "raan_deg": 256.5403,
      "arg_perigee_deg": 82.0252,
      "mean_anomaly_deg": 278.0953,
      "mean_motion_rev_day": 15.08836657
    },
    {
      "epoch": "2026-04-23T02:23:32.708832Z",
      "apogee_km": 540.8367914298024,
      "perigee_km": 538.7221227272021,
      "latitude_deg": -9.860589839118833e-08,
      "longitude_deg": 7.7201393727479495,
      "height_km": 540.6154473346808,
      "semi_major_axis_km": 6917.916457078502,
      "eccentricity": 0.00015284,
      "inclination_deg": 53.2196,
      "raan_deg": 254.7582,
      "arg_perigee_deg": 86.7624,
      "mean_anomaly_deg": 273.3543,
      "mean_motion_rev_day": 15.088282
    },
    {
      "epoch": "2026-04-24T16:32:47.219424Z",
      "apogee_km": 540.1716758707407,
      "perigee_km": 539.3110917997919,
      "latitude_deg": -2.9414888184034143e-05,
      "longitude_deg": 146.70492419099284,
      "height_km": 540.2262339462349,
      "semi_major_axis_km": 6917.8783838352665,
      "eccentricity": 6.22e-05,
      "inclination_deg": 53.2174,
      "raan_deg": 247.6204,
      "arg_perigee_deg": 16.576,
      "mean_anomaly_deg": 343.5252,
      "mean_motion_rev_day": 15.08840656
    },
    {
      "epoch": "2026-04-25T14:48:11.214144Z",
      "apogee_km": 540.5154968627676,
      "perigee_km": 538.9728093656222,
      "latitude_deg": 7.576867611260868e-06,
      "longitude_deg": 167.7786246189678,
      "height_km": 540.6434470250946,
      "semi_major_axis_km": 6917.881153114195,
      "eccentricity": 0.0001115,
      "inclination_deg": 53.2178,
      "raan_deg": 243.4581,
      "arg_perigee_deg": 90.2385,
      "mean_anomaly_deg": 269.8735,
      "mean_motion_rev_day": 15.0883975
    },
    {
      "epoch": "2026-04-26T14:38:58.403616Z",
      "apogee_km": 540.5688160590644,
      "perigee_km": 538.9202848855866,
      "latitude_deg": 4.4119391049897564e-05,
      "longitude_deg": 164.64169075128106,
      "height_km": 540.689017319715,
      "semi_major_axis_km": 6917.881550472325,
      "eccentricity": 0.00011915,
      "inclination_deg": 53.2181,
      "raan_deg": 238.9971,
      "arg_perigee_deg": 93.3704,
      "mean_anomaly_deg": 266.7425,
      "mean_motion_rev_day": 15.0883962
    },
    {
      "epoch": "2026-04-27T17:40:31.933344Z",
      "apogee_km": 540.6188423897129,
      "perigee_km": 538.8838359942429,
      "latitude_deg": 3.4912804477348155e-05,
      "longitude_deg": 113.08705994888616,
      "height_km": 540.7015488904642,
      "semi_major_axis_km": 6917.888339191978,
      "eccentricity": 0.0001254,
      "inclination_deg": 53.2179,
      "raan_deg": 233.9421,
      "arg_perigee_deg": 93.5892,
      "mean_anomaly_deg": 266.5244,
      "mean_motion_rev_day": 15.08837399
    },
    {
      "epoch": "2026-04-28T14:20:32.955360Z",
      "apogee_km": 540.6291419866602,
      "perigee_km": 538.8885993855956,
      "latitude_deg": -1.1975850462741295e-05,
      "longitude_deg": 158.36770582679895,
      "height_km": 540.6949372850543,
      "semi_major_axis_km": 6917.895870686128,
      "eccentricity": 0.0001258,
      "inclination_deg": 53.2179,
      "raan_deg": 230.0758,
      "arg_perigee_deg": 92.6453,
      "mean_anomaly_deg": 267.4683,
      "mean_motion_rev_day": 15.08834935
    }
  ]
}